DTUSAT                  
1 27842U 03031C   09191.06204085  .00000026  00000-0  32257-4 0  5969
2 27842  98.7046 200.8717 0010360  58.8208 301.3994 14.20985828312591
CUTE-1 (CO-55)          
1 27844U 03031E   09191.02289899  .00000017  00000-0  28037-4 0  6189
2 27844  98.7104 199.8632 0011022  78.6551 281.5848 14.20645519312506
QUAKESAT                
1 27845U 03031F   09191.04887078  .00000054  00000-0  45439-4 0  5933
2 27845  98.7185 199.3039 0010054  93.8484 266.3845 14.20278663312410
AAU CUBESAT             
1 27846U 03031G   09190.99124011  .00000031  00000-0  34406-4 0  5294
2 27846  98.7042 200.7950 0010302  59.0647 301.1550 14.20986170312581
CANX-1                  
1 27847U 03031H   09190.01429552 -.00000016  00000-0  12795-4 0  5444
2 27847  98.7048 199.8243 0010288  60.9248 299.2944 14.20967590312390
CUBESAT XI-IV (CO-57)   
1 27848U 03031J   09190.01746019  .00000029  00000-0  34070-4 0  5651
2 27848  98.7142 197.9344 0010756  84.9994 275.2417 14.20446969312325
UWE-1                   
1 28892U 05043C   09190.24521547  .00000139  00000-0  38749-4 0  3790
2 28892  98.0532  79.6999 0016253 279.8818  80.0536 14.59749520197068
CUBESAT XI-V (CO-58)    
1 28895U 05043F   09189.24414665 -.00000048  00000-0 -39392-6 0  3421
2 28895  98.0565  79.2698 0016844 283.5757  76.3568 14.59779218196800
NCUBE-2                 
1 28897U 05043H   09191.21855049  .00000062  00000-0  22462-4 0  8942
2 28897  98.0547  81.0961 0016221 278.4946  81.4423 14.59959001189380
CUTE-1.7+APD (CO-56)    
1 28941U 06005C   09191.05878179  .00071462  44022-5  21138-3 0  2415
2 28941  98.1375   9.8425 0077401  46.0030 314.7481 15.87659810190872
GENESAT-1               
1 29655U 06058C   09190.75951282  .00009603  00000-0  93800-4 0  7523
2 29655  40.0234  41.8335 0004148 301.2155  58.8277 15.66023853146018
CSTB1                   
1 31122U 07012F   09191.10732416  .00000553  00000-0  13192-3 0  6789
2 31122  97.9919 247.2033 0085142 201.6515 158.1040 14.55257408118499
MAST                    
1 31126U 07012K   09188.68652982 -.00000052  00000-0 -10405-5 0  6345
2 31126  97.9875 242.5524 0093865 215.8053 143.6825 14.53504423118010
LIBERTAD-1              
1 31128U 07012M   09190.96003452 -.00000047  00000-0  00000+0 0  6744
2 31128  97.9844 242.8356 0102134 214.4069 145.0511 14.52053979118209
POLYSAT CP3             
1 31129U 07012N   09191.11738303  .00000087  00000-0  30860-4 0   539
2 31129  97.9892 243.0972 0101516 213.6144 145.8570 14.52146123118216
CAPE1                   
1 31130U 07012P   09190.81285434 -.00000023  00000-0  56098-5 0  6448
2 31130  97.9894 242.7145 0101896 214.7488 144.6947 14.52070637117975
POLYSAT CP4             
1 31132U 07012Q   09190.69923921 -.00000117  00000-0 -15296-4 0  6489
2 31132  97.9927 246.7197 0085008 203.0175 156.7196 14.55215863118308
NTS (CANX-6)            
1 32784U 08021B   09190.87774783  .00000084  00000-0  17711-4 0  4184
2 32784  97.9450 254.4521 0015199 315.9062  44.0937 14.81058087 64788
CUTE-1.7+APD II         
1 32785U 08021C   09190.88616821  .00000238  00000-0  37107-4 0  4131
2 32785  97.9446 254.6654 0014513 322.1943  37.8249 14.81498190 64802
COMPASS-1               
1 32787U 08021E   09190.38835806  .00000074  00000-0  16230-4 0  4046
2 32787  97.9422 254.0249 0014967 324.1881  35.8333 14.81623234 64731
AAUSAT-II               
1 32788U 08021F   09190.75956404  .00000136  00000-0  24009-4 0  4037
2 32788  97.9409 254.4548 0015052 324.5717  35.4461 14.81746920 64793
DELFI-C3                
1 32789U 08021G   09190.24115499  .00000307  00000-0  45666-4 0  4158
2 32789  97.9451 254.1159 0015177 324.4674  35.5522 14.81739281 64718
CANX-2                  
1 32790U 08021H   09191.22665977  .00000189  00000-0  30918-4 0  4028
2 32790  97.9433 254.9705 0014774 321.0738  38.9405 14.81484568 64836
SEEDS II                
1 32791U 08021J   09190.23112904  .00000303  00000-0  45511-4 0  3972
2 32791  97.9434 253.9017 0015722 323.5009  36.5127 14.81452091 64678
HAWKSAT 1               
1 35003U 09028C   09190.89039901  .00000866  00000-0  26924-4 0   468
2 35003  40.4695 104.4631 0029521 334.1920  25.7422 15.39915105  7852
POLYSAT CP6             
1 35004U 09028D   09191.14410741  .00002896  00000-0  75300-4 0   404
2 35004  40.4606 102.8185 0029356 337.9542  22.0008 15.40173674  7880
AEROCUBE 3              
1 35005U 09028E   09191.15028008  .00003043  00000-0  79276-4 0   419
2 35005  40.4742 102.9311 0029176 336.0119  23.9336 15.39999836  7882
